VSP RF A1               
1 59135U 24043AP  26066.03073316  .00000577  00000+0  25199-4 0  9997
2 59135  97.5247 201.5379 0009431 234.6315 125.4042 15.26179596111403
STARLINK-36447          
1 67425U 26005X   26068.53504780  .00029523  00000+0  10777-2 0  9995
2 67425  43.0012 238.7868 0002124 286.3221  73.7398 15.27590263  8679
